STARLINK-31356          
1 58968U 24031D   25296.66462190 -.00001235  00000+0 -29583-4 0  9997
2 58968  53.1601 185.3112 0001023  90.6798 269.4320 15.30207449 95948
STARLINK-31335          
1 58969U 24031E   25296.47708855  .00001968  00000+0  78550-4 0  9997
2 58969  53.1600 211.3158 0001010  92.1265 267.9851 15.30198837 95560
STARLINK-31368          
1 58970U 24031F   25296.18059905  .00003408  00000+0  12716-3 0  9994
2 58970  53.1608 215.1543 0001444  72.7450 287.3708 15.30193985 95488
STARLINK-31351          
1 58972U 24031H   25296.00259220  .00000416  00000+0  26175-4 0  9990
2 58972  53.1604 216.1682 0001129  43.6907 316.4183 15.30196325 95443
STARLINK-31365          
1 58973U 24031J   25296.20487271  .00000757  00000+0  37697-4 0  9991
2 58973  53.1581 215.2956 0001164  68.6588 291.4537 15.30186824 95485
STARLINK-31361          
1 58974U 24031K   25296.07109782 -.00000007  00000+0  11910-4 0  9994
2 58974  53.1612 215.8823 0001063  78.0475 282.0645 15.30155416 95465
STARLINK-31369          
1 58975U 24031L   25296.07740419  .00000702  00000+0  35822-4 0  9992
2 58975  53.1595 215.9209 0000895  95.5732 264.5371 15.30192547 95442
STARLINK-31358          
1 58977U 24031N   25296.50505317  .00001280  00000+0  55323-4 0  9998
2 58977  53.1618 213.6064 0001179  67.5592 292.5533 15.30196417 95512
STARLINK-31355          
1 58978U 24031P   25296.47562002  .00000590  00000+0  32026-4 0  9997
2 58978  53.1613 214.1384 0001148  76.1683 283.9445 15.30202350 95501
STARLINK-31380          
1 58979U 24031Q   25296.47879002  .00001204  00000+0  52789-4 0  9990
2 58979  53.1597 214.1573 0000974  91.6316 268.4796 15.30191915 95505
STARLINK-31353          
1 58980U 24031R   25296.47668208 -.00000204  00000+0  52409-5 0  9996
2 58980  53.1609 214.1492 0001490  81.6066 278.5103 15.30197251 95509
STARLINK-31339          
1 58981U 24031S   25296.48195036  .00000845  00000+0  40642-4 0  9997
2 58981  53.1600 214.1795 0001140  97.6142 262.4989 15.30205404 95505
STARLINK-31384          
1 58983U 24031U   25296.16171867 -.00000825  00000+0 -15745-4 0  9996
2 58983  53.1602 215.7354 0001138  82.5118 277.6012 15.30190793 95453
STARLINK-31379          
1 58984U 24031V   25296.49250593  .00001349  00000+0  57673-4 0  9993
2 58984  53.1614 214.2417 0001353  88.6224 271.4932 15.30195645 95505
STARLINK-31385          
1 58985U 24031W   25296.46769747  .00000852  00000+0  40872-4 0  9998
2 58985  53.1595 211.9224 0001016 130.5405 229.5684 15.30201623 95533
