[{"OBJECT_NAME":"STARLINK-31356","OBJECT_ID":"2024-031D","EPOCH":"2025-10-23T15:57:03.332160","MEAN_MOTION":15.30207449,"ECCENTRICITY":0.0001023,"INCLINATION":53.1601,"RA_OF_ASC_NODE":185.3112,"ARG_OF_PERICENTER":90.6798,"MEAN_ANOMALY":269.432,"EPHEMERIS_TYPE":0,"CLASSIFICATION_TYPE":"U","NORAD_CAT_ID":58968,"ELEMENT_SET_NO":999,"REV_AT_EPOCH":9594,"BSTAR":-2.9583e-5,"MEAN_MOTION_DOT":-1.235e-5,"MEAN_MOTION_DDOT":0},{"OBJECT_NAME":"STARLINK-31335","OBJECT_ID":"2024-031E","EPOCH":"2025-10-23T11:27:00.449856","MEAN_MOTION":15.30198837,"ECCENTRICITY":0.000101,"INCLINATION":53.16,"RA_OF_ASC_NODE":211.3158,"ARG_OF_PERICENTER":92.1265,"MEAN_ANOMALY":267.9851,"EPHEMERIS_TYPE":0,"CLASSIFICATION_TYPE":"U","NORAD_CAT_ID":58969,"ELEMENT_SET_NO":999,"REV_AT_EPOCH":9556,"BSTAR":7.855e-5,"MEAN_MOTION_DOT":1.968e-5,"MEAN_MOTION_DDOT":0},{"OBJECT_NAME":"STARLINK-31368","OBJECT_ID":"2024-031F","EPOCH":"2025-10-23T04:20:03.757920","MEAN_MOTION":15.30193985,"ECCENTRICITY":0.00014445,"INCLINATION":53.1608,"RA_OF_ASC_NODE":215.1543,"ARG_OF_PERICENTER":72.745,"MEAN_ANOMALY":287.3708,"EPHEMERIS_TYPE":0,"CLASSIFICATION_TYPE":"U","NORAD_CAT_ID":58970,"ELEMENT_SET_NO":999,"REV_AT_EPOCH":9548,"BSTAR":0.000127157,"MEAN_MOTION_DOT":3.408e-5,"MEAN_MOTION_DDOT":0},{"OBJECT_NAME":"STARLINK-31351","OBJECT_ID":"2024-031H","EPOCH":"2025-10-23T00:03:43.966080","MEAN_MOTION":15.30196325,"ECCENTRICITY":0.00011295,"INCLINATION":53.1604,"RA_OF_ASC_NODE":216.1682,"ARG_OF_PERICENTER":43.6907,"MEAN_ANOMALY":316.4183,"EPHEMERIS_TYPE":0,"CLASSIFICATION_TYPE":"U","NORAD_CAT_ID":58972,"ELEMENT_SET_NO":999,"REV_AT_EPOCH":9544,"BSTAR":2.6175447e-5,"MEAN_MOTION_DOT":4.16e-6,"MEAN_MOTION_DDOT":0},{"OBJECT_NAME":"STARLINK-31365","OBJECT_ID":"2024-031J","EPOCH":"2025-10-23T04:55:01.002144","MEAN_MOTION":15.30186824,"ECCENTRICITY":0.0001165,"INCLINATION":53.1581,"RA_OF_ASC_NODE":215.2956,"ARG_OF_PERICENTER":68.6588,"MEAN_ANOMALY":291.4537,"EPHEMERIS_TYPE":0,"CLASSIFICATION_TYPE":"U","NORAD_CAT_ID":58973,"ELEMENT_SET_NO":999,"REV_AT_EPOCH":9548,"BSTAR":3.7697e-5,"MEAN_MOTION_DOT":7.57e-6,"MEAN_MOTION_DDOT":0},{"OBJECT_NAME":"STARLINK-31361","OBJECT_ID":"2024-031K","EPOCH":"2025-10-23T01:42:22.851648","MEAN_MOTION":15.30155416,"ECCENTRICITY":0.00010637,"INCLINATION":53.1612,"RA_OF_ASC_NODE":215.8823,"ARG_OF_PERICENTER":78.0475,"MEAN_ANOMALY":282.0645,"EPHEMERIS_TYPE":0,"CLASSIFICATION_TYPE":"U","NORAD_CAT_ID":58974,"ELEMENT_SET_NO":999,"REV_AT_EPOCH":9546,"BSTAR":1.1909961e-5,"MEAN_MOTION_DOT":-7.0e-8,"MEAN_MOTION_DDOT":0},{"OBJECT_NAME":"STARLINK-31369","OBJECT_ID":"2024-031L","EPOCH":"2025-10-23T01:51:27.722016","MEAN_MOTION":15.30192547,"ECCENTRICITY":8.955e-5,"INCLINATION":53.1595,"RA_OF_ASC_NODE":215.9209,"ARG_OF_PERICENTER":95.5732,"MEAN_ANOMALY":264.5371,"EPHEMERIS_TYPE":0,"CLASSIFICATION_TYPE":"U","NORAD_CAT_ID":58975,"ELEMENT_SET_NO":999,"REV_AT_EPOCH":9544,"BSTAR":3.5821586e-5,"MEAN_MOTION_DOT":7.02e-6,"MEAN_MOTION_DDOT":0},{"OBJECT_NAME":"STARLINK-31358","OBJECT_ID":"2024-031N","EPOCH":"2025-10-23T12:07:16.593024","MEAN_MOTION":15.30196417,"ECCENTRICITY":0.0001179,"INCLINATION":53.1618,"RA_OF_ASC_NODE":213.6064,"ARG_OF_PERICENTER":67.5592,"MEAN_ANOMALY":292.5533,"EPHEMERIS_TYPE":0,"CLASSIFICATION_TYPE":"U","NORAD_CAT_ID":58977,"ELEMENT_SET_NO":999,"REV_AT_EPOCH":9551,"BSTAR":5.5323e-5,"MEAN_MOTION_DOT":1.28e-5,"MEAN_MOTION_DDOT":0},{"OBJECT_NAME":"STARLINK-31355","OBJECT_ID":"2024-031P","EPOCH":"2025-10-23T11:24:53.568864","MEAN_MOTION":15.3020235,"ECCENTRICITY":0.0001148,"INCLINATION":53.1613,"RA_OF_ASC_NODE":214.1384,"ARG_OF_PERICENTER":76.1683,"MEAN_ANOMALY":283.9445,"EPHEMERIS_TYPE":0,"CLASSIFICATION_TYPE":"U","NORAD_CAT_ID":58978,"ELEMENT_SET_NO":999,"REV_AT_EPOCH":9550,"BSTAR":3.2026e-5,"MEAN_MOTION_DOT":5.9e-6,"MEAN_MOTION_DDOT":0},{"OBJECT_NAME":"STARLINK-31380","OBJECT_ID":"2024-031Q","EPOCH":"2025-10-23T11:29:27.456864","MEAN_MOTION":15.30191915,"ECCENTRICITY":9.74e-5,"INCLINATION":53.1597,"RA_OF_ASC_NODE":214.1573,"ARG_OF_PERICENTER":91.6316,"MEAN_ANOMALY":268.4796,"EPHEMERIS_TYPE":0,"CLASSIFICATION_TYPE":"U","NORAD_CAT_ID":58979,"ELEMENT_SET_NO":999,"REV_AT_EPOCH":9550,"BSTAR":5.2789e-5,"MEAN_MOTION_DOT":1.204e-5,"MEAN_MOTION_DDOT":0},{"OBJECT_NAME":"STARLINK-31353","OBJECT_ID":"2024-031R","EPOCH":"2025-10-23T11:26:25.330848","MEAN_MOTION":15.30197251,"ECCENTRICITY":0.0001491,"INCLINATION":53.1609,"RA_OF_ASC_NODE":214.1492,"ARG_OF_PERICENTER":81.6066,"MEAN_ANOMALY":278.5103,"EPHEMERIS_TYPE":0,"CLASSIFICATION_TYPE":"U","NORAD_CAT_ID":58980,"ELEMENT_SET_NO":999,"REV_AT_EPOCH":9550,"BSTAR":5.2409e-6,"MEAN_MOTION_DOT":-2.04e-6,"MEAN_MOTION_DDOT":0},{"OBJECT_NAME":"STARLINK-31339","OBJECT_ID":"2024-031S","EPOCH":"2025-10-23T11:34:00.511104","MEAN_MOTION":15.30205404,"ECCENTRICITY":0.0001141,"INCLINATION":53.16,"RA_OF_ASC_NODE":214.1795,"ARG_OF_PERICENTER":97.6142,"MEAN_ANOMALY":262.4989,"EPHEMERIS_TYPE":0,"CLASSIFICATION_TYPE":"U","NORAD_CAT_ID":58981,"ELEMENT_SET_NO":999,"REV_AT_EPOCH":9550,"BSTAR":4.0642e-5,"MEAN_MOTION_DOT":8.45e-6,"MEAN_MOTION_DDOT":0},{"OBJECT_NAME":"STARLINK-31384","OBJECT_ID":"2024-031U","EPOCH":"2025-10-23T03:52:52.493088","MEAN_MOTION":15.30190793,"ECCENTRICITY":0.00011383,"INCLINATION":53.1602,"RA_OF_ASC_NODE":215.7354,"ARG_OF_PERICENTER":82.5118,"MEAN_ANOMALY":277.6012,"EPHEMERIS_TYPE":0,"CLASSIFICATION_TYPE":"U","NORAD_CAT_ID":58983,"ELEMENT_SET_NO":999,"REV_AT_EPOCH":9545,"BSTAR":-1.5744579e-5,"MEAN_MOTION_DOT":-8.25e-6,"MEAN_MOTION_DDOT":0},{"OBJECT_NAME":"STARLINK-31379","OBJECT_ID":"2024-031V","EPOCH":"2025-10-23T11:49:12.512352","MEAN_MOTION":15.30195645,"ECCENTRICITY":0.0001354,"INCLINATION":53.1614,"RA_OF_ASC_NODE":214.2417,"ARG_OF_PERICENTER":88.6224,"MEAN_ANOMALY":271.4932,"EPHEMERIS_TYPE":0,"CLASSIFICATION_TYPE":"U","NORAD_CAT_ID":58984,"ELEMENT_SET_NO":999,"REV_AT_EPOCH":9550,"BSTAR":5.7673e-5,"MEAN_MOTION_DOT":1.349e-5,"MEAN_MOTION_DDOT":0},{"OBJECT_NAME":"STARLINK-31385","OBJECT_ID":"2024-031W","EPOCH":"2025-10-23T11:13:29.061408","MEAN_MOTION":15.30201622,"ECCENTRICITY":0.0001017,"INCLINATION":53.1595,"RA_OF_ASC_NODE":211.9224,"ARG_OF_PERICENTER":130.5405,"MEAN_ANOMALY":229.5684,"EPHEMERIS_TYPE":0,"CLASSIFICATION_TYPE":"U","NORAD_CAT_ID":58985,"ELEMENT_SET_NO":999,"REV_AT_EPOCH":9553,"BSTAR":4.0872e-5,"MEAN_MOTION_DOT":8.52e-6,"MEAN_MOTION_DDOT":0}]
